{"version": 0.6, "generator": "Overpass API 0.7.61.5 4133829e", "osm3s": {"timestamp_osm_base": "2023-11-13T21:29:40Z", "copyright": "The data included in this document is from www.openstreetmap.org. The data is made available under ODbL."}, "elements": [{"type": "node", "id": 508037779, "lat": 47.6297422, "lon": -122.3418928, "tags": {"highway": "turning_circle"}}, {"type": "node", "id": 508037786, "lat": 47.6297452, "lon": -122.3409826, "tags": {"highway": "traffic_signals"}}, {"type": "node", "id": 3892263115, "lat": 47.6285076, "lon": -122.3410004}, {"type": "node", "id": 3892263117, "lat": 47.6286046, "lon": -122.3406668}, {"type": "node", "id": 4217678606, "lat": 47.6297429, "lon": -122.341548}, {"type": "node", "id": 6352975603, "lat": 47.6297451, "lon": -122.3411617, "tags": {"button_operated": "yes", "crossing": "traffic_signals", "crossing:island": "no", "highway": "crossing", "lit": "yes", "traffic_signals:foot": "yes"}}, {"type": "node", "id": 9863113940, "lat": 47.6285841, "lon": -122.3408623, "tags": {"crossing": "unmarked", "crossing:island": "no", "highway": "crossing"}}, {"type": "node", "id": 10605396151, "lat": 47.6285597, "lon": -122.3409532}, {"type": "way", "id": 41500686, "nodes": [508037786, 6352975603, 4217678606, 508037779], "tags": {"highway": "residential", "lanes": "2", "lit": "yes", "maxspeed": "20 mph", "name": "Highland Drive", "sidewalk": "separate", "surface": "asphalt", "tiger:reviewed": "yes"}}, {"type": "way", "id": 385888588, "nodes": [3892263115, 10605396151, 9863113940, 3892263117], "tags": {"highway": "residential", "lanes": "2", "maxspeed": "20 mph", "name": "Ward Street", "oneway": "yes", "sidewalk": "separate", "surface": "concrete"}}]}